[{"OBJECT_NAME":"TPA-1","OBJECT_ID":"2025-135F","EPOCH":"2026-03-09T20:51:31.425408","MEAN_MOTION":15.20645482,"ECCENTRICITY":0.00056519,"INCLINATION":97.4555,"RA_OF_ASC_NODE":184.7205,"ARG_OF_PERICENTER":162.0288,"MEAN_ANOMALY":198.1148,"EPHEMERIS_TYPE":0,"CLASSIFICATION_TYPE":"U","NORAD_CAT_ID":64533,"ELEMENT_SET_NO":999,"REV_AT_EPOCH":3975,"BSTAR":0.00027699607,"MEAN_MOTION_DOT":6.013e-5,"MEAN_MOTION_DDOT":0},{"OBJECT_NAME":"SHIJIAN-30C (SJ-30C)","OBJECT_ID":"2025-266C","EPOCH":"2026-03-09T22:18:08.951328","MEAN_MOTION":15.15375128,"ECCENTRICITY":0.00100456,"INCLINATION":51.7965,"RA_OF_ASC_NODE":284.3719,"ARG_OF_PERICENTER":284.8645,"MEAN_ANOMALY":75.1218,"EPHEMERIS_TYPE":0,"CLASSIFICATION_TYPE":"U","NORAD_CAT_ID":66547,"ELEMENT_SET_NO":999,"REV_AT_EPOCH":1680,"BSTAR":0.00059078911,"MEAN_MOTION_DOT":0.00011009,"MEAN_MOTION_DDOT":0}]
